[Satellite]
VERSION=1.1
NAME=ORBCOMM FM117 [+]
NICKNAME=ORBCOMM FM117 [+]
TLE1=1 41188U 15081K   17186.18638519  .00000080  00000-0  31975-4 0  9998
TLE2=2 41188  47.0004 105.9483 0001312 261.1979  98.8770 14.88400119 83557
